[{"OBJECT_NAME":"STARLINK-35991","OBJECT_ID":"2025-281P","EPOCH":"2026-03-09T03:10:15.234528","MEAN_MOTION":15.27583694,"ECCENTRICITY":0.00010811,"INCLINATION":43.001,"RA_OF_ASC_NODE":346.3275,"ARG_OF_PERICENTER":261.1147,"MEAN_ANOMALY":98.9583,"EPHEMERIS_TYPE":0,"CLASSIFICATION_TYPE":"U","NORAD_CAT_ID":66861,"ELEMENT_SET_NO":999,"REV_AT_EPOCH":1610,"BSTAR":0.0012484966,"MEAN_MOTION_DOT":0.00034257,"MEAN_MOTION_DDOT":0},{"OBJECT_NAME":"OBJECT BD","OBJECT_ID":"2025-313BD","EPOCH":"2026-03-09T15:06:44.992224","MEAN_MOTION":15.3000236,"ECCENTRICITY":0.00072867,"INCLINATION":97.397,"RA_OF_ASC_NODE":145.285,"ARG_OF_PERICENTER":333.4514,"MEAN_ANOMALY":26.6352,"EPHEMERIS_TYPE":0,"CLASSIFICATION_TYPE":"U","NORAD_CAT_ID":67299,"ELEMENT_SET_NO":999,"REV_AT_EPOCH":1083,"BSTAR":0.0027633805,"MEAN_MOTION_DOT":0.0008101,"MEAN_MOTION_DDOT":0}]
